{"type": "FeatureCollection", "features": [ {"type": "Feature", "properties": {"norad_id": 66899, "name": "STARLINK-36064", "group": "last-30-days", "lat": 29.495802797325613, "lon": 164.07765174203183, "alt_km": 384.0300571239468, "timestamp": "2025-12-25T16:53:13.373682+00:00", "meta": {"OBJECT_NAME": "STARLINK-36064", "OBJECT_ID": "2025-283X", "EPOCH": "2025-12-25T06:00:04.000320", "MEAN_MOTION": 15.61837554, "ECCENTRICITY": 0.00013714, "INCLINATION": 53.1599, "RA_OF_ASC_NODE": 11.3787, "ARG_OF_PERICENTER": 74.0631, "MEAN_ANOMALY": 37.741, "EPHEMERIS_TYPE": 0, "CLASSIFICATION_TYPE": "U", "NORAD_CAT_ID": 66899, "ELEMENT_SET_NO": 999, "REV_AT_EPOCH": 438, "BSTAR": -0.025822777, "MEAN_MOTION_DOT": -0.02004369, "MEAN_MOTION_DDOT": 0}, "tle": {"line1": "1 66899U 25283X   25359.25004630 -.02004369  00000+0 -25823-1 0  9998", "line2": "2 66899  53.1599  11.3787 0001371  74.0631  37.7410 15.61837554  4384"}}, "geometry": {"type": "Point", "coordinates": [164.07765174203183, 29.495802797325613]}}, {"type": "Feature", "properties": {"norad_id": 66900, "name": "STARLINK-36074", "group": "last-30-days", "lat": 28.09702067666246, "lon": 165.5725782366734, "alt_km": 384.30180476536134, "timestamp": "2025-12-25T16:53:13.373692+00:00", "meta": {"OBJECT_NAME": "STARLINK-36074", "OBJECT_ID": "2025-283Y", "EPOCH": "2025-12-25T06:00:04.000320", "MEAN_MOTION": 15.61837364, "ECCENTRICITY": 0.00013333, "INCLINATION": 53.1597, "RA_OF_ASC_NODE": 11.3748, "ARG_OF_PERICENTER": 73.6434, "MEAN_ANOMALY": 40.0778, "EPHEMERIS_TYPE": 0, "CLASSIFICATION_TYPE": "U", "NORAD_CAT_ID": 66900, "ELEMENT_SET_NO": 999, "REV_AT_EPOCH": 444, "BSTAR": -0.025823882, "MEAN_MOTION_DOT": -0.02004402, "MEAN_MOTION_DDOT": 0}, "tle": {"line1": "1 66900U 25283Y   25359.25004630 -.02004402  00000+0 -25824-1 0  9990", "line2": "2 66900  53.1597  11.3748 0001333  73.6434  40.0778 15.61837364  4446"}}, "geometry": {"type": "Point", "coordinates": [165.5725782366734, 28.09702067666246]}}, {"type": "Feature", "properties": {"norad_id": 66901, "name": "STARLINK-36043", "group": "last-30-days", "lat": 26.682106724039542, "lon": 167.02848957448012, "alt_km": 384.5424026752198, "timestamp": "2025-12-25T16:53:13.373703+00:00", "meta": {"OBJECT_NAME": "STARLINK-36043", "OBJECT_ID": "2025-283Z", "EPOCH": "2025-12-25T06:00:04.000320", "MEAN_MOTION": 15.6183756, "ECCENTRICITY": 0.00013412, "INCLINATION": 53.1596, "RA_OF_ASC_NODE": 11.3703, "ARG_OF_PERICENTER": 75.1114, "MEAN_ANOMALY": 40.5269, "EPHEMERIS_TYPE": 0, "CLASSIFICATION_TYPE": "U", "NORAD_CAT_ID": 66901, "ELEMENT_SET_NO": 999, "REV_AT_EPOCH": 444, "BSTAR": -0.025832026, "MEAN_MOTION_DOT": -0.02004976, "MEAN_MOTION_DDOT": 0}, "tle": {"line1": "1 66901U 25283Z   25359.25004630 -.02004976  00000+0 -25832-1 0  9996", "line2": "2 66901  53.1596  11.3703 0001341  75.1114  40.5269 15.61837560  4446"}}, "geometry": {"type": "Point", "coordinates": [167.02848957448012, 26.682106724039542]}}, {"type": "Feature", "properties": {"norad_id": 66902, "name": "STARLINK-35983", "group": "last-30-days", "lat": 25.252569235770697, "lon": 168.448974357411, "alt_km": 384.799823540332, "timestamp": "2025-12-25T16:53:13.373714+00:00", "meta": {"OBJECT_NAME": "STARLINK-35983", "OBJECT_ID": "2025-283AA", "EPOCH": "2025-12-25T06:00:04.000320", "MEAN_MOTION": 15.61836508, "ECCENTRICITY": 0.0001327, "INCLINATION": 53.1595, "RA_OF_ASC_NODE": 11.3663, "ARG_OF_PERICENTER": 75.6479, "MEAN_ANOMALY": 41.9083, "EPHEMERIS_TYPE": 0, "CLASSIFICATION_TYPE": "U", "NORAD_CAT_ID": 66902, "ELEMENT_SET_NO": 999, "REV_AT_EPOCH": 444, "BSTAR": -0.025815993, "MEAN_MOTION_DOT": -0.02003802, "MEAN_MOTION_DDOT": 0}, "tle": {"line1": "1 66902U 25283AA  25359.25004630 -.02003802  00000+0 -25816-1 0  9996", "line2": "2 66902  53.1595  11.3663 0001327  75.6479  41.9083 15.61836508  4444"}}, "geometry": {"type": "Point", "coordinates": [168.448974357411, 25.252569235770697]}}, {"type": "Feature", "properties": {"norad_id": 66903, "name": "STARLINK-36077", "group": "last-30-days", "lat": 23.80989091959722, "lon": 169.83635391728592, "alt_km": 385.07074969016594, "timestamp": "2025-12-25T16:53:13.373724+00:00", "meta": {"OBJECT_NAME": "STARLINK-36077", "OBJECT_ID": "2025-283AB", "EPOCH": "2025-12-25T06:00:04.000320", "MEAN_MOTION": 15.61837102, "ECCENTRICITY": 0.00013239, "INCLINATION": 53.1595, "RA_OF_ASC_NODE": 11.3626, "ARG_OF_PERICENTER": 74.97, "MEAN_ANOMALY": 44.5025, "EPHEMERIS_TYPE": 0, "CLASSIFICATION_TYPE": "U", "NORAD_CAT_ID": 66903, "ELEMENT_SET_NO": 999, "REV_AT_EPOCH": 444, "BSTAR": -0.025820642, "MEAN_MOTION_DOT": -0.02004157, "MEAN_MOTION_DDOT": 0}, "tle": {"line1": "1 66903U 25283AB  25359.25004630 -.02004157  00000+0 -25821-1 0  9997", "line2": "2 66903  53.1595  11.3626 0001323  74.9700  44.5025 15.61837102  4445"}}, "geometry": {"type": "Point", "coordinates": [169.83635391728592, 23.80989091959722]}}, {"type": "Feature", "properties": {"norad_id": 66904, "name": "STARLINK-36059", "group": "last-30-days", "lat": 22.355263304298553, "lon": 171.19177455293695, "alt_km": 385.330561535111, "timestamp": "2025-12-25T16:53:13.373734+00:00", "meta": {"OBJECT_NAME": "STARLINK-36059", "OBJECT_ID": "2025-283AC", "EPOCH": "2025-12-25T06:00:04.000320", "MEAN_MOTION": 15.61837117, "ECCENTRICITY": 0.00012929, "INCLINATION": 53.1596, "RA_OF_ASC_NODE": 11.3578, "ARG_OF_PERICENTER": 75.8889, "MEAN_ANOMALY": 45.501, "EPHEMERIS_TYPE": 0, "CLASSIFICATION_TYPE": "U", "NORAD_CAT_ID": 66904, "ELEMENT_SET_NO": 999, "REV_AT_EPOCH": 444, "BSTAR": -0.025825304, "MEAN_MOTION_DOT": -0.02004452, "MEAN_MOTION_DDOT": 0}, "tle": {"line1": "1 66904U 25283AC  25359.25004630 -.02004452  00000+0 -25825-1 0  9990", "line2": "2 66904  53.1596  11.3578 0001292  75.8889  45.5010 15.61837117  4447"}}, "geometry": {"type": "Point", "coordinates": [171.19177455293695, 22.355263304298553]}}, {"type": "Feature", "properties": {"norad_id": 66905, "name": "STARLINK-36075", "group": "last-30-days", "lat": 20.888873062845185, "lon": 172.5211043209105, "alt_km": 385.59015189155616, "timestamp": "2025-12-25T16:53:13.373744+00:00", "meta": {"OBJECT_NAME": "STARLINK-36075", "OBJECT_ID": "2025-283AD", "EPOCH": "2025-12-25T06:00:04.000320", "MEAN_MOTION": 15.61836701, "ECCENTRICITY": 0.00013739, "INCLINATION": 53.1598, "RA_OF_ASC_NODE": 11.3545, "ARG_OF_PERICENTER": 74.8441, "MEAN_ANOMALY": 48.4615, "EPHEMERIS_TYPE": 0, "CLASSIFICATION_TYPE": "U", "NORAD_CAT_ID": 66905, "ELEMENT_SET_NO": 999, "REV_AT_EPOCH": 444, "BSTAR": -0.025798426, "MEAN_MOTION_DOT": -0.02002655, "MEAN_MOTION_DDOT": 0}, "tle": {"line1": "1 66905U 25283AD  25359.25004630 -.02002655  00000+0 -25798-1 0  9993", "line2": "2 66905  53.1598  11.3545 0001373  74.8441  48.4615 15.61836701  4448"}}, "geometry": {"type": "Point", "coordinates": [172.5211043209105, 20.888873062845185]}}, {"type": "Feature", "properties": {"norad_id": 66906, "name": "1998-067XS", "group": "last-30-days", "lat": 38.474570978266684, "lon": -140.92747999456947, "alt_km": 409.2834159495742, "timestamp": "2025-12-25T16:53:13.373754+00:00", "meta": {"OBJECT_NAME": "1998-067XS", "OBJECT_ID": "1998-067XS", "EPOCH": "2025-12-25T05:31:02.274816", "MEAN_MOTION": 15.51241036, "ECCENTRICITY": 0.00027545, "INCLINATION": 51.6322, "RA_OF_ASC_NODE": 80.4463, "ARG_OF_PERICENTER": 265.4219, "MEAN_ANOMALY": 94.6456, "EPHEMERIS_TYPE": 0, "CLASSIFICATION_TYPE": "U", "NORAD_CAT_ID": 66906, "ELEMENT_SET_NO": 999, "REV_AT_EPOCH": 355, "BSTAR": 0.00049047062, "MEAN_MOTION_DOT": 0.000289, "MEAN_MOTION_DDOT": 0}, "tle": {"line1": "1 66906U 98067XS  25359.22988744  .00028900  00000+0  49047-3 0  9990", "line2": "2 66906  51.6322  80.4463 0002754 265.4219  94.6456 15.51241036  3555"}}, "geometry": {"type": "Point", "coordinates": [-140.92747999456947, 38.474570978266684]}}, {"type": "Feature", "properties": {"norad_id": 66907, "name": "1998-067XT", "group": "last-30-days", "lat": -19.12509485481987, "lon": -86.1227048010621, "alt_km": 411.0366590529684, "timestamp": "2025-12-25T16:53:13.373766+00:00", "meta": {"OBJECT_NAME": "1998-067XT", "OBJECT_ID": "1998-067XT", "EPOCH": "2025-12-24T10:39:56.166048", "MEAN_MOTION": 15.52879993, "ECCENTRICITY": 0.00038856, "INCLINATION": 51.6313, "RA_OF_ASC_NODE": 84.2012, "ARG_OF_PERICENTER": 298.2919, "MEAN_ANOMALY": 61.7678, "EPHEMERIS_TYPE": 0, "CLASSIFICATION_TYPE": "U", "NORAD_CAT_ID": 66907, "ELEMENT_SET_NO": 999, "REV_AT_EPOCH": 343, "BSTAR": 0.0010726177, "MEAN_MOTION_DOT": 0.00067981, "MEAN_MOTION_DDOT": 0}, "tle": {"line1": "1 66907U 98067XT  25358.44440007  .00067981  00000+0  10726-2 0  9992", "line2": "2 66907  51.6313  84.2012 0003885 298.2919  61.7678 15.52879993  3433"}}, "geometry": {"type": "Point", "coordinates": [-86.1227048010621, -19.12509485481987]}}, {"type": "Feature", "properties": {"norad_id": 66908, "name": "1998-067XU", "group": "last-30-days", "lat": -23.804071373824037, "lon": -81.62664940496666, "alt_km": 410.7901237598544, "timestamp": "2025-12-25T16:53:13.373778+00:00", "meta": {"OBJECT_NAME": "1998-067XU", "OBJECT_ID": "1998-067XU", "EPOCH": "2025-12-24T10:38:25.805472", "MEAN_MOTION": 15.52977314, "ECCENTRICITY": 0.00038638, "INCLINATION": 51.6323, "RA_OF_ASC_NODE": 84.1936, "ARG_OF_PERICENTER": 296.7785, "MEAN_ANOMALY": 63.2809, "EPHEMERIS_TYPE": 0, "CLASSIFICATION_TYPE": "U", "NORAD_CAT_ID": 66908, "ELEMENT_SET_NO": 999, "REV_AT_EPOCH": 343, "BSTAR": 0.0010585814, "MEAN_MOTION_DOT": 0.00067317, "MEAN_MOTION_DDOT": 0}, "tle": {"line1": "1 66908U 98067XU  25358.44335423  .00067317  00000+0  10586-2 0  9995", "line2": "2 66908  51.6323  84.1936 0003863 296.7785  63.2809 15.52977314  3438"}}, "geometry": {"type": "Point", "coordinates": [-81.62664940496666, -23.804071373824037]}}]}